      2.10          N: GNSS NAV DATA                        RINEX VERSION / TYPE
fic2rin                                 04/30/2022 00:17:35 PGM / RUN BY / DATE
                                                            END OF HEADER
2  22  4 29  2  0  0.0 -.653259456158D-03 -.113686837722D-12  .000000000000D+00
     .960000000000D+02 -.176250000000D+02  .418910306439D-08 -.150087435781D+01
    -.543892383575D-06  .204501607222D-01  .121984630823D-04  .515366017532D+04
     .439200000000D+06 -.210478901863D-06  .302807872921D+01  .491738319397D-06
     .966067716712D+00  .152437500000D+03 -.142197565723D+01 -.784496963162D-08
     .182150444440D-09  .100000000000D+01  .220700000000D+04  .000000000000D+00
     .240000000000D+01  .000000000000D+00 -.176951289177D-07  .960000000000D+02
     .432000000000D+06  .400000000000D+01
1  22  4 29  2  0  0.0  .374437775463D-03 -.852651282912D-11  .000000000000D+00
     .570000000000D+02 -.154062500000D+02  .370229707268D-08 -.164951800550D+01
    -.845640897751D-06  .118124727160D-01  .125281512737D-04  .515366901779D+04
     .439200000000D+06  .212341547012D-06  .311879995543D+01 -.484287738800D-07
     .987909096802D+00  .146968750000D+03  .897593847907D+00 -.742173771659D-08
     .389659088008D-09  .100000000000D+01  .220700000000D+04  .000000000000D+00
     .240000000000D+01  .000000000000D+00  .512227416039D-08  .570000000000D+02
     .432000000000D+06  .400000000000D+01
3  22  4 29  2  0  0.0 -.224994495511D-03 -.145519152284D-10  .000000000000D+00
     .870000000000D+02  .409375000000D+02  .474269755239D-08 -.276459784094D+01
     .215508043766D-05  .408255623188D-02  .553950667381D-05  .515362897682D+04
     .439200000000D+06  .912696123123D-07 -.213054667350D+01 -.128522515297D-06
     .973262246885D+00  .277281250000D+03  .945692609173D+00 -.816926885427D-08
     .418231706744D-09  .100000000000D+01  .220700000000D+04  .000000000000D+00
     .240000000000D+01  .000000000000D+00  .186264514923D-08  .870000000000D+02
     .432000000000D+06  .400000000000D+01
14 22  4 29 12  0  0.0 -.105632469058D-03 -.227373675443D-11  .000000000000D+00
     .125000000000D+03  .800312500000D+02  .507306845652D-08  .232523119121D+01
     .422261655331D-05  .178546621464D-02  .343099236488D-05  .515365937424D+04
     .475200000000D+06 -.502914190292D-07  .104943452898D+01  .134110450745D-06
     .952880665933D+00  .310625000000D+03  .306989906594D+01 -.856071373095D-08
     .266796827444D-09  .100000000000D+01  .220700000000D+04  .000000000000D+00
     .240000000000D+01  .000000000000D+00 -.745058059692D-08  .125000000000D+03
     .468000000000D+06  .400000000000D+01
10 22  4 29 12  0  0.0 -.396012794226D-03 -.135287336889D-10  .000000000000D+00
     .870000000000D+02  .440625000000D+02  .451983112625D-08  .156219955307D+01
     .228546559811D-05  .757459562737D-02  .591389834881D-05  .515367364120D+04
     .475200000000D+06 -.108033418655D-06 -.213360509246D+01  .428408384323D-07
     .973093388103D+00  .270750000000D+03 -.249279154293D+01 -.816462580372D-08
     .466448000860D-09  .100000000000D+01  .220700000000D+04  .000000000000D+00
     .240000000000D+01  .000000000000D+00  .232830643654D-08  .870000000000D+02
     .468000000000D+06  .400000000000D+01
24 22  4 29 12  0  0.0  .249500386417D-03 -.591171556152D-11  .000000000000D+00
     .630000000000D+02  .393125000000D+02  .489948979770D-08 -.238101957070D+01
     .180117785931D-05  .124340822222D-01  .122301280499D-04  .515369726372D+04
     .475200000000D+06  .188127160072D-06 -.114822269071D+00 -.134110450745D-06
     .934797123012D+00  .127562500000D+03  .814171190207D+00 -.798283251702D-08
     .264296723305D-10  .100000000000D+01  .220700000000D+04  .000000000000D+00
     .240000000000D+01  .000000000000D+00  .232830643654D-08  .630000000000D+02
     .468000000000D+06  .400000000000D+01
21 22  4 29 12  0  0.0  .160803552717D-03  .227373675443D-12  .000000000000D+00
     .620000000000D+02 -.487812500000D+02  .416553065393D-08 -.328457272512D+00
    -.263564288616D-05  .243293648819D-01  .122394412756D-04  .515376336288D+04
     .475200000000D+06 -.365078449249D-06  .302570138932D+01 -.396743416786D-06
     .960348766175D+00  .151968750000D+03 -.957951533521D+00 -.809712299196D-08
     .115004790411D-09  .100000000000D+01  .220700000000D+04  .000000000000D+00
     .240000000000D+01  .000000000000D+00 -.102445483208D-07  .620000000000D+02
     .468000000000D+06  .400000000000D+01
22 22  4 29 12  0  0.0  .251028686762D-03  .602540239925D-11  .000000000000D+00
     .410000000000D+02 -.523125000000D+02  .488448917287D-08 -.628774821304D+00
    -.259652733803D-05  .133066354319D-01  .764243304729D-05  .515367969513D+04
     .475200000000D+06 -.968575477600D-07 -.100061175785D+01  .152736902237D-06
     .961157294665D+00  .237750000000D+03 -.185667893082D+01 -.840677874751D-08
    -.401088135502D-09  .100000000000D+01  .220700000000D+04  .000000000000D+00
     .240000000000D+01  .000000000000D+00 -.977888703346D-08  .410000000000D+02
     .468000000000D+06  .400000000000D+01
20 22  4 29 12  0  0.0  .515603460371D-03 -.227373675443D-12  .000000000000D+00
     .730000000000D+02  .568750000000D+02  .501699469225D-08 -.166222013259D+01
     .295974314213D-05  .483211211395D-02  .653602182865D-05  .515355848122D+04
     .475200000000D+06 -.391155481339D-07 -.228759302275D+01 -.521540641785D-07
     .942700205853D+00  .244281250000D+03 -.312305983097D+01 -.834641909043D-08
     .629669085388D-09  .100000000000D+01  .220700000000D+04  .000000000000D+00
     .240000000000D+01  .000000000000D+00 -.838190317154D-08  .730000000000D+02
     .468000000000D+06  .400000000000D+01
17 22  4 29 12  0  0.0  .606381334364D-03  .466116034659D-11  .000000000000D+00
     .650000000000D+02 -.884062500000D+02  .430375069706D-08 -.539564951846D+00
    -.460445880890D-05  .135207349667D-01  .559352338314D-05  .515354221916D+04
     .475200000000D+06 -.165775418282D-06  .212035254684D+01  .465661287308D-07
     .978867405802D+00  .284125000000D+03 -.149538543797D+01 -.837499170916D-08
    -.426089176896D-09  .100000000000D+01  .220700000000D+04  .000000000000D+00
     .240000000000D+01  .000000000000D+00 -.111758708954D-07  .650000000000D+02
     .468000000000D+06  .400000000000D+01
19 22  4 29 12  0  0.0  .150712672621D-03  .500222085975D-11  .000000000000D+00
     .184000000000D+03 -.972812500000D+02  .420267505829D-08  .186893395795D+01
    -.512041151524D-05  .917092966847D-02  .522658228874D-05  .515369860840D+04
     .475200000000D+06  .145286321640D-06  .216517875451D+01 -.149011611938D-07
     .977707579479D+00  .284062500000D+03  .204658636269D+01 -.799997608826D-08
    -.590024576892D-09  .100000000000D+01  .220700000000D+04  .000000000000D+00
     .240000000000D+01  .000000000000D+00 -.158324837685D-07  .184000000000D+03
     .468000000000D+06  .400000000000D+01
11 22  4 29 12  0  0.0 -.320300459862D-04  .591171556152D-11  .000000000000D+00
     .221000000000D+03 -.136250000000D+02  .406481217289D-08 -.569973801948D+00
    -.732019543648D-06  .320427236147D-03  .124480575323D-04  .515357032967D+04
     .475200000000D+06  .409781932831D-07 -.312262941707D+01 -.117346644402D-06
     .963070778346D+00  .145468750000D+03  .285784526043D+01 -.772925052574D-08
     .116790579082D-09  .100000000000D+01  .220700000000D+04  .000000000000D+00
     .240000000000D+01  .630000000000D+02 -.884756445885D-08  .989000000000D+03
     .468000000000D+06  .400000000000D+01
29 22  4 29 12  0  0.0 -.508309807628D-03 -.409272615798D-11  .000000000000D+00
     .500000000000D+02 -.954687500000D+02  .414302971667D-08 -.343676080974D+00
    -.499747693539D-05  .208800926339D-02  .607781112194D-05  .515371405602D+04
     .475200000000D+06 -.335276126862D-07  .213352640356D+01 -.186264514923D-08
     .980926433740D+00  .273125000000D+03  .224579126800D+01 -.805033532878D-08
    -.543236913712D-09  .100000000000D+01  .220700000000D+04  .000000000000D+00
     .240000000000D+01  .000000000000D+00 -.102445483208D-07  .500000000000D+02
     .468000000000D+06  .400000000000D+01
30 22  4 29 12  0  0.0 -.525862909853D-03 -.159161572810D-11  .000000000000D+00
     .250000000000D+02  .457812500000D+02  .487484591404D-08  .294041023267D+01
     .243633985519D-05  .576078984886D-02  .123120844364D-04  .515378794861D+04
     .475200000000D+06 -.763684511185D-07 -.188667146515D-01 -.912696123123D-07
     .936490782772D+00  .132687500000D+03 -.270796299072D+01 -.802176271004D-08
     .285726187357D-11  .100000000000D+01  .220700000000D+04  .000000000000D+00
     .240000000000D+01  .000000000000D+00  .372529029846D-08  .250000000000D+02
     .468000000000D+06  .400000000000D+01
32 22  4 29 12  0  0.0 -.115840230137D-03 -.829913915368D-11  .000000000000D+00
     .840000000000D+02 -.510000000000D+02  .494984903822D-08  .178905966072D+00
    -.272504985332D-05  .593379896600D-02  .668317079544D-05  .515358778572D+04
     .475200000000D+06 -.931322574615D-08 -.109102665926D+01  .108033418655D-06
     .957833380942D+00  .251843750000D+03 -.229366131081D+01 -.834106172442D-08
    -.417874549009D-09  .100000000000D+01  .220700000000D+04  .000000000000D+00
     .240000000000D+01  .000000000000D+00  .465661287308D-09  .840000000000D+02
     .468000000000D+06  .400000000000D+01
27 22  4 29 12  0  0.0  .193661078811D-03  .761701812735D-11  .000000000000D+00
     .108000000000D+03 -.897187500000D+02  .455197532233D-08 -.469509130243D+00
    -.469759106636D-05  .105318811256D-01  .451691448689D-05  .515365067482D+04
     .475200000000D+06  .875443220139D-07  .205734651722D+01  .173225998878D-06
     .972363163766D+00  .295875000000D+03  .673611699500D+00 -.843820862812D-08
    -.561094800422D-09  .100000000000D+01  .220700000000D+04  .000000000000D+00
     .340000000000D+01  .000000000000D+00  .139698386192D-08  .108000000000D+03
     .468000000000D+06  .400000000000D+01
